start=new Date('2022-07-10T00:00:00.000Z').valueOf();
sats=[{"NORAD_CAT_ID":"51150","ELEMENT_SET_NO":"999","RCS_SIZE":"LARGE","MEAN_MOTION_DDOT":"0.0000000000000","TLE_LINE1":"1 51150U 22005AY  22190.72132873  .00001227  00000-0  95227-4 0  9999","MEAN_ANOMALY":"309.6647","FILE":"3510681","MEAN_MOTION":"15.08832318","COUNTRY_CODE":"US","MEAN_ELEMENT_THEORY":"SGP4","ECCENTRICITY":"0.00020740","OBJECT_ID":"2022-005AY","SITE":"AFETR","TIME_SYSTEM":"UTC","OBJECT_TYPE":"PAYLOAD","OBJECT_NAME":"STARLINK-3357","PERIAPSIS":"538.334","CENTER_NAME":"EARTH","REV_AT_EPOCH":"2660","APOAPSIS":"541.204","REF_FRAME":"TEME","EPOCH":"2022-07-09T17:18:42.802272","INCLINATION":"53.2179","TLE_LINE2":"2 51150  53.2179 189.9806 0002074  50.4528 309.6647 15.08832318 26607","PERIOD":"95.438","EPHEMERIS_TYPE":"0","ARG_OF_PERICENTER":"50.4528","GP_ID":"207785307","LAUNCH_DATE":"2022-01-19","SEMIMAJOR_AXIS":"6917.904","MEAN_MOTION_DOT":"0.00001227","CLASSIFICATION_TYPE":"U","RA_OF_ASC_NODE":"189.9806","BSTAR":"0.00009522700000","DECAY_DATE":null},{"MEAN_MOTION_DOT":"0.00001260","CLASSIFICATION_TYPE":"U","SEMIMAJOR_AXIS":"6917.902","LAUNCH_DATE":"2022-01-19","BSTAR":"0.00009726500000","DECAY_DATE":null,"RA_OF_ASC_NODE":"199.8130","REF_FRAME":"TEME","APOAPSIS":"541.233","PERIAPSIS":"538.300","REV_AT_EPOCH":"2646","CENTER_NAME":"EARTH","ARG_OF_PERICENTER":"50.6945","GP_ID":"207785557","TLE_LINE2":"2 51151  53.2154 199.8130 0002120  50.6945 309.4235 15.08833040 26466","INCLINATION":"53.2154","EPOCH":"2022-07-09T18:10:22.829088","PERIOD":"95.438","EPHEMERIS_TYPE":"0","ECCENTRICITY":"0.00021200","MEAN_ELEMENT_THEORY":"SGP4","OBJECT_TYPE":"PAYLOAD","TIME_SYSTEM":"UTC","OBJECT_NAME":"STARLINK-3361","SITE":"AFETR","OBJECT_ID":"2022-005AZ","ELEMENT_SET_NO":"999","NORAD_CAT_ID":"51151","FILE":"3510681","MEAN_ANOMALY":"309.4235","MEAN_MOTION":"15.08833040","COUNTRY_CODE":"US","MEAN_MOTION_DDOT":"0.0000000000000","RCS_SIZE":"LARGE","TLE_LINE1":"1 51151U 22005AZ  22190.75720867  .00001260  00000-0  97265-4 0  9990"},{"TIME_SYSTEM":"UTC","OBJECT_TYPE":"PAYLOAD","OBJECT_NAME":"STARLINK-3364","OBJECT_ID":"2022-005BA","SITE":"AFETR","ECCENTRICITY":"0.00022740","MEAN_ELEMENT_THEORY":"SGP4","MEAN_ANOMALY":"318.2448","FILE":"3510681","COUNTRY_CODE":"US","MEAN_MOTION":"15.08834367","RCS_SIZE":"LARGE","MEAN_MOTION_DDOT":"0.0000000000000","TLE_LINE1":"1 51152U 22005BA  22190.76087180 -.00000781  00000-0 -30990-4 0  9997","ELEMENT_SET_NO":"999","NORAD_CAT_ID":"51152","BSTAR":"-0.00003099000000","DECAY_DATE":null,"RA_OF_ASC_NODE":"199.8020","MEAN_MOTION_DOT":"-0.00000781","CLASSIFICATION_TYPE":"U","SEMIMAJOR_AXIS":"6917.898","LAUNCH_DATE":"2022-01-19","ARG_OF_PERICENTER":"41.8718","GP_ID":"207785809","EPOCH":"2022-07-09T18:15:39.323520","TLE_LINE2":"2 51152  53.2152 199.8020 0002274  41.8718 318.2448 15.08834367 26460","INCLINATION":"53.2152","EPHEMERIS_TYPE":"0","PERIOD":"95.438","REF_FRAME":"TEME","APOAPSIS":"541.336","PERIAPSIS":"538.189","CENTER_NAME":"EARTH","REV_AT_EPOCH":"2646"},{"COUNTRY_CODE":"US","MEAN_MOTION":"15.08842890","FILE":"3510681","MEAN_ANOMALY":"302.3030","TLE_LINE1":"1 51460U 22010E   22190.64218636 -.00000754  00000-0 -29255-4 0  9996","MEAN_MOTION_DDOT":"0.0000000000000","RCS_SIZE":"LARGE","ELEMENT_SET_NO":"999","NORAD_CAT_ID":"51460","OBJECT_NAME":"STARLINK-3167","OBJECT_TYPE":"PAYLOAD","TIME_SYSTEM":"UTC","OBJECT_ID":"2022-010E","SITE":"AFETR","ECCENTRICITY":"0.00025530","MEAN_ELEMENT_THEORY":"SGP4","GP_ID":"207784820","ARG_OF_PERICENTER":"57.8210","EPHEMERIS_TYPE":"0","PERIOD":"95.437","INCLINATION":"53.2172","TLE_LINE2":"2 51460  53.2172 170.3321 0002553  57.8210 302.3030 15.08842890 24678","EPOCH":"2022-07-09T15:24:44.901504","APOAPSIS":"541.503","REF_FRAME":"TEME","REV_AT_EPOCH":"2467","CENTER_NAME":"EARTH","PERIAPSIS":"537.970","DECAY_DATE":null,"BSTAR":"-0.00002925500000","RA_OF_ASC_NODE":"170.3321","CLASSIFICATION_TYPE":"U","MEAN_MOTION_DOT":"-0.00000754","SEMIMAJOR_AXIS":"6917.872","LAUNCH_DATE":"2022-02-03"},{"ELEMENT_SET_NO":"999","NORAD_CAT_ID":"51461","MEAN_ANOMALY":"304.6384","FILE":"3510681","COUNTRY_CODE":"US","MEAN_MOTION":"15.08829943","RCS_SIZE":"LARGE","MEAN_MOTION_DDOT":"0.0000000000000","TLE_LINE1":"1 51461U 22010F   22190.66059896 -.00000183  00000-0  66329-5 0  9999","ECCENTRICITY":"0.00025310","MEAN_ELEMENT_THEORY":"SGP4","TIME_SYSTEM":"UTC","OBJECT_TYPE":"PAYLOAD","OBJECT_NAME":"STARLINK-3181","OBJECT_ID":"2022-010F","SITE":"AFETR","REF_FRAME":"TEME","APOAPSIS":"541.527","PERIAPSIS":"538.025","CENTER_NAME":"EARTH","REV_AT_EPOCH":"2467","ARG_OF_PERICENTER":"55.4847","GP_ID":"207785070","EPOCH":"2022-07-09T15:51:15.750144","INCLINATION":"53.2178","TLE_LINE2":"2 51461  53.2178 170.2569 0002531  55.4847 304.6384 15.08829943 24675","PERIOD":"95.438","EPHEMERIS_TYPE":"0","MEAN_MOTION_DOT":"-0.00000183","CLASSIFICATION_TYPE":"U","LAUNCH_DATE":"2022-02-03","SEMIMAJOR_AXIS":"6917.911","BSTAR":"0.00000663290000","DECAY_DATE":null,"RA_OF_ASC_NODE":"170.2569"},{"GP_ID":"207786321","ARG_OF_PERICENTER":"48.0621","PERIOD":"95.438","EPHEMERIS_TYPE":"0","TLE_LINE2":"2 51462  53.2183 170.2746 0002897  48.0621 312.0618 15.08840859 24674","INCLINATION":"53.2183","EPOCH":"2022-07-09T15:45:56.585088","APOAPSIS":"541.747","REF_FRAME":"TEME","REV_AT_EPOCH":"2467","CENTER_NAME":"EARTH","PERIAPSIS":"537.739","DECAY_DATE":null,"BSTAR":"0.00000847500000","RA_OF_ASC_NODE":"170.2746","CLASSIFICATION_TYPE":"U","MEAN_MOTION_DOT":"-0.00000154","SEMIMAJOR_AXIS":"6917.878","LAUNCH_DATE":"2022-02-03","MEAN_MOTION":"15.08840859","COUNTRY_CODE":"US","FILE":"3510681","MEAN_ANOMALY":"312.0618","TLE_LINE1":"1 51462U 22010G   22190.65690492 -.00000154  00000-0  84750-5 0  9998","MEAN_MOTION_DDOT":"0.0000000000000","RCS_SIZE":"LARGE","ELEMENT_SET_NO":"999","NORAD_CAT_ID":"51462","OBJECT_NAME":"STARLINK-3166","OBJECT_TYPE":"PAYLOAD","TIME_SYSTEM":"UTC","SITE":"AFETR","OBJECT_ID":"2022-010G","ECCENTRICITY":"0.00028970","MEAN_ELEMENT_THEORY":"SGP4"},{"BSTAR":"0.00000842060000","DECAY_DATE":null,"RA_OF_ASC_NODE":"171.5697","MEAN_MOTION_DOT":"-0.00000154","CLASSIFICATION_TYPE":"U","LAUNCH_DATE":"2022-02-03","SEMIMAJOR_AXIS":"6917.860","ARG_OF_PERICENTER":"59.5553","GP_ID":"207733576","EPOCH":"2022-07-09T08:47:17.863008","TLE_LINE2":"2 51463  53.2172 171.5697 0002427  59.5553 300.5678 15.08846676 24325","INCLINATION":"53.2172","EPHEMERIS_TYPE":"0","PERIOD":"95.437","APOAPSIS":"541.404","REF_FRAME":"TEME","PERIAPSIS":"538.046","CENTER_NAME":"EARTH","REV_AT_EPOCH":"2432","TIME_SYSTEM":"UTC","OBJECT_TYPE":"PAYLOAD","OBJECT_NAME":"STARLINK-3419","SITE":"AFETR","OBJECT_ID":"2022-010H","ECCENTRICITY":"0.00024270","MEAN_ELEMENT_THEORY":"SGP4","MEAN_ANOMALY":"300.5678","FILE":"3510582","COUNTRY_CODE":"US","MEAN_MOTION":"15.08846676","RCS_SIZE":"LARGE","MEAN_MOTION_DDOT":"0.0000000000000","TLE_LINE1":"1 51463U 22010H   22190.36617897 -.00000154  00000-0  84206-5 0  9991","ELEMENT_SET_NO":"999","NORAD_CAT_ID":"51463"},{"PERIAPSIS":"538.073","REV_AT_EPOCH":"2517","CENTER_NAME":"EARTH","APOAPSIS":"541.479","REF_FRAME":"TEME","TLE_LINE2":"2 51464  53.2174 170.3023 0002462  48.8695 311.2510 15.08830001 25178","INCLINATION":"53.2174","EPOCH":"2022-07-09T15:35:21.467328","PERIOD":"95.438","EPHEMERIS_TYPE":"0","ARG_OF_PERICENTER":"48.8695","GP_ID":"207785320","SEMIMAJOR_AXIS":"6917.911","LAUNCH_DATE":"2022-02-03","MEAN_MOTION_DOT":"-0.00000020","CLASSIFICATION_TYPE":"U","RA_OF_ASC_NODE":"170.3023","BSTAR":"0.00001684900000","DECAY_DATE":null,"NORAD_CAT_ID":"51464","ELEMENT_SET_NO":"999","MEAN_MOTION_DDOT":"0.0000000000000","RCS_SIZE":"LARGE","TLE_LINE1":"1 51464U 22010J   22190.64955402 -.00000020  00000-0  16849-4 0  9999","FILE":"3510681","MEAN_ANOMALY":"311.2510","MEAN_MOTION":"15.08830001","COUNTRY_CODE":"US","MEAN_ELEMENT_THEORY":"SGP4","ECCENTRICITY":"0.00024620","SITE":"AFETR","OBJECT_ID":"2022-010J","OBJECT_TYPE":"PAYLOAD","TIME_SYSTEM":"UTC","OBJECT_NAME":"STARLINK-3189"},{"NORAD_CAT_ID":"51465","ELEMENT_SET_NO":"999","MEAN_MOTION_DDOT":"0.0000000000000","RCS_SIZE":"LARGE","TLE_LINE1":"1 51465U 22010K   22190.64587798 -.00000550  00000-0 -16441-4 0  9996","FILE":"3510681","MEAN_ANOMALY":"309.3373","MEAN_MOTION":"15.08827822","COUNTRY_CODE":"US","MEAN_ELEMENT_THEORY":"SGP4","ECCENTRICITY":"0.00024290","OBJECT_ID":"2022-010K","SITE":"AFETR","OBJECT_TYPE":"PAYLOAD","TIME_SYSTEM":"UTC","OBJECT_NAME":"STARLINK-3401","PERIAPSIS":"538.102","REV_AT_EPOCH":"2517","CENTER_NAME":"EARTH","APOAPSIS":"541.463","REF_FRAME":"TEME","TLE_LINE2":"2 51465  53.2176 170.3163 0002429  50.7835 309.3373 15.08827822 25179","INCLINATION":"53.2176","EPOCH":"2022-07-09T15:30:03.857472","PERIOD":"95.438","EPHEMERIS_TYPE":"0","ARG_OF_PERICENTER":"50.7835","GP_ID":"207785570","SEMIMAJOR_AXIS":"6917.918","LAUNCH_DATE":"2022-02-03","MEAN_MOTION_DOT":"-0.00000550","CLASSIFICATION_TYPE":"U","RA_OF_ASC_NODE":"170.3163","BSTAR":"-0.00001644100000","DECAY_DATE":null},{"SITE":"AFETR","OBJECT_ID":"2022-010M","TIME_SYSTEM":"UTC","OBJECT_TYPE":"PAYLOAD","OBJECT_NAME":"STARLINK-3178","MEAN_ELEMENT_THEORY":"SGP4","ECCENTRICITY":"0.00029200","RCS_SIZE":"LARGE","MEAN_MOTION_DDOT":"0.0000000000000","TLE_LINE1":"1 51467U 22010M   22190.36249890  .00001943  00000-0  14012-3 0  9991","MEAN_ANOMALY":"313.5800","FILE":"3510582","COUNTRY_CODE":"US","MEAN_MOTION":"15.08846814","NORAD_CAT_ID":"51467","ELEMENT_SET_NO":"999","RA_OF_ASC_NODE":"171.5982","BSTAR":"0.00014012000000","DECAY_DATE":null,"SEMIMAJOR_AXIS":"6917.860","LAUNCH_DATE":"2022-02-03","MEAN_MOTION_DOT":"0.00001943","CLASSIFICATION_TYPE":"U","EPOCH":"2022-07-09T08:41:59.904960","INCLINATION":"53.2163","TLE_LINE2":"2 51467  53.2163 171.5982 0002920  46.5435 313.5800 15.08846814 24324","EPHEMERIS_TYPE":"0","PERIOD":"95.437","ARG_OF_PERICENTER":"46.5435","GP_ID":"207733324","PERIAPSIS":"537.705","CENTER_NAME":"EARTH","REV_AT_EPOCH":"2432","REF_FRAME":"TEME","APOAPSIS":"541.745"}];
